NORAD_CAT_ID,OBJECT_NAME,OBJECT_TYPE,EPOCH,MEAN_MOTION,ECCENTRICITY,INCLINATION,RA_OF_ASC_NODE,ARG_OF_PERICENTER,MEAN_ANOMALY,BSTAR,MEAN_MOTION_DOT,MEAN_MOTION_DDOT,TLE_LINE0,TLE_LINE1,TLE_LINE2,SEMIMAJOR_AXIS,PERIOD,APOGEE,PERIGEE,DECAYED
53914.0,STARLINK-5040,PAYLOAD,2023-02-10 01:06:28,15.0885283,7.09e-05,53.2176,318.2906,101.2819,258.8252,0.0013494,0.0002126,0.0,0 STARLINK-5040,1 53914U 22119AE  23041.04616241  .00021260  00000-0  13494-2 0  9995,2 53914  53.2176 318.2906 0000709 101.2819 258.8252 15.08852830 21774,6917.841,95.437,540.197,539.216,0.0
53914.0,STARLINK-5040,PAYLOAD,2023-02-11 00:57:15,15.08860324,0.0001122,53.2178,313.8265,101.0542,259.0577,0.0010621,0.00016665,0.0,0 STARLINK-5040,1 53914U 22119AE  23042.03975868  .00016665  00000-0  10621-2 0  9990,2 53914  53.2178 313.8265 0001122 101.0542 259.0577 15.08860324 21923,6917.818,95.436,540.459,538.907,0.0
53914.0,STARLINK-5040,PAYLOAD,2023-02-11 18:26:29,15.08844822,0.0001102,53.2176,310.5589,112.6565,247.4544,0.00075755,0.00011791,0.0,0 STARLINK-5040,1 53914U 22119AE  23042.76840047  .00011791  00000-0  75755-3 0  9995,2 53914  53.2176 310.5589 0001102 112.6565 247.4544 15.08844822 22038,6917.866,95.437,540.493,538.968,0.0
53914.0,STARLINK-5040,PAYLOAD,2023-02-12 02:23:25,15.08841655,0.0001085,53.2179,309.0718,111.3498,248.761,0.00054282,8.362e-05,0.0,0 STARLINK-5040,1 53914U 22119AE  23043.09960189  .00008362  00000-0  54282-3 0  9994,2 53914  53.2179 309.0718 0001085 111.3498 248.7610 15.08841655 22083,6917.875,95.437,540.491,538.99,0.0
53914.0,STARLINK-5040,PAYLOAD,2023-02-12 03:58:48,15.08846508,0.0001131,53.2173,308.7739,116.6937,243.4171,0.00029673,4.439e-05,0.0,0 STARLINK-5040,1 53914U 22119AE  23043.16584036  .00004439  00000-0  29673-3 0  9992,2 53914  53.2173 308.7739 0001131 116.6937 243.4171 15.08846508 22518,6917.86,95.437,540.508,538.943,0.0
53914.0,STARLINK-5040,PAYLOAD,2023-02-13 02:14:13,15.08833443,0.0001461,53.2178,304.6103,80.5692,279.5465,0.00044679,6.829e-05,0.0,0 STARLINK-5040,1 53914U 22119AE  23044.09321086  .00006829  00000-0  44679-3 0  9997,2 53914  53.2178 304.6103 0001461  80.5692 279.5465 15.08833443 22235,6917.9,95.438,540.776,538.755,0.0
53914.0,STARLINK-5040,PAYLOAD,2023-02-13 10:11:08,15.08848257,0.0001551,53.2181,303.1238,81.178,278.9388,0.0008514,0.00013291,0.0,0 STARLINK-5040,1 53914U 22119AE  23044.42440873  .00013291  00000-0  85140-3 0  9999,2 53914  53.2181 303.1238 0001551  81.1780 278.9388 15.08848257 22705,6917.855,95.437,540.793,538.647,0.0
53914.0,STARLINK-5040,PAYLOAD,2023-02-14 02:05:01,15.08830791,0.0001511,53.2163,300.1503,83.7259,276.3905,0.00014542,2.027e-05,0.0,0 STARLINK-5040,1 53914U 22119AE  23045.08681804  .00002027  00000-0  14542-3 0  9996,2 53914  53.2163 300.1503 0001511  83.7259 276.3905 15.08830791 22387,6917.909,95.438,540.819,538.728,0.0
53914.0,STARLINK-5040,PAYLOAD,2023-02-14 10:01:56,15.08835295,0.0001855,53.2163,298.6636,84.1605,275.9598,0.00056886,8.776e-05,0.0,0 STARLINK-5040,1 53914U 22119AE  23045.41802017  .00008776  00000-0  56886-3 0  9998,2 53914  53.2163 298.6636 0001855  84.1605 275.9598 15.08835295 22855,6917.895,95.438,541.043,538.477,0.0
53914.0,STARLINK-5040,PAYLOAD,2023-02-14 16:23:29,15.08840519,0.0001779,53.2161,297.4742,85.8311,274.2885,0.00087147,0.00013609,0.0,0 STARLINK-5040,1 53914U 22119AE  23045.68298110  .00013609  00000-0  87147-3 0  9995,2 53914  53.2161 297.4742 0001779  85.8311 274.2885 15.08840519 22895,6917.879,95.438,540.974,538.513,0.0
53914.0,STARLINK-5040,PAYLOAD,2023-02-15 00:20:24,15.08854165,0.000142,53.2171,295.99,82.0041,278.1112,0.00095814,0.00015,0.0,0 STARLINK-5040,1 53914U 22119AE  23046.01417704  .00015000  00000-0  95814-3 0  9992,2 53914  53.2171 295.9900 0001420  82.0041 278.1112 15.08854165 22525,6917.837,95.437,540.684,538.72,0.0
53914.0,STARLINK-5040,PAYLOAD,2023-02-15 09:52:43,15.08851588,0.0001516,53.2164,294.2043,73.1542,286.9616,0.00065989,0.00010233,0.0,0 STARLINK-5040,1 53914U 22119AE  23046.41161757  .00010233  00000-0  65989-3 0  9993,2 53914  53.2164 294.2043 0001516  73.1542 286.9616 15.08851588 22588,6917.845,95.437,540.759,538.661,0.0
53914.0,STARLINK-5040,PAYLOAD,2023-02-15 21:00:25,15.08856837,0.0001746,53.2157,292.1231,72.7439,287.3744,0.00069983,0.00010872,0.0,0 STARLINK-5040,1 53914U 22119AE  23046.87529571  .00010872  00000-0  69983-3 0  9992,2 53914  53.2157 292.1231 0001746  72.7439 287.3744 15.08856837 23075,6917.829,95.436,540.902,538.486,0.0
53914.0,STARLINK-5040,PAYLOAD,2023-02-15 22:35:48,15.08855221,0.0001689,53.2165,291.8267,70.0658,290.0516,0.00062886,9.739e-05,0.0,0 STARLINK-5040,1 53914U 22119AE  23046.94153549  .00009739  00000-0  62886-3 0  9993,2 53914  53.2165 291.8267 0001689  70.0658 290.0516 15.08855221 22667,6917.834,95.437,540.867,538.53,0.0
53914.0,STARLINK-5040,PAYLOAD,2023-02-16 09:43:30,15.0884996,0.0001539,53.2164,289.7456,65.9998,294.1155,0.00048477,7.438e-05,0.0,0 STARLINK-5040,1 53914U 22119AE  23047.40521362  .00007438  00000-0  48477-3 0  9991,2 53914  53.2164 289.7456 0001539  65.9998 294.1155 15.08849960 22731,6917.85,95.437,540.78,538.65,0.0
53914.0,STARLINK-5040,PAYLOAD,2023-02-16 16:05:03,15.0883068,0.0001388,53.2165,288.5547,92.3956,267.7195,-0.00025342,-4.318e-05,0.0,0 STARLINK-5040,1 53914U 22119AE  23047.67017739 -.00004318  00000-0 -25342-3 0  9990,2 53914  53.2165 288.5547 0001388  92.3956 267.7195 15.08830680 22773,6917.909,95.438,540.734,538.814,0.0
53914.0,STARLINK-5040,PAYLOAD,2023-02-17 01:37:22,15.08840704,0.000153,53.2155,286.769,103.7014,256.4148,0.0002113,3.077e-05,0.0,0 STARLINK-5040,1 53914U 22119AE  23048.06761707  .00003077  00000-0  21130-3 0  9995,2 53914  53.2155 286.7690 0001530 103.7014 256.4148 15.08840704 22830,6917.878,95.438,540.802,538.685,0.0
53914.0,STARLINK-5040,PAYLOAD,2023-02-17 19:06:37,15.08833513,0.000139,53.2151,283.4963,108.6555,251.4588,0.00013524,1.865e-05,0.0,0 STARLINK-5040,1 53914U 22119AE  23048.79626379  .00001865  00000-0  13524-3 0  9991,2 53914  53.2151 283.4963 0001390 108.6555 251.4588 15.08833513 22946,6917.9,95.438,540.727,538.804,0.0
53914.0,STARLINK-5040,PAYLOAD,2023-02-17 22:17:23,15.08832259,0.0001129,53.2155,282.9029,96.1788,263.9333,0.00020101,2.912e-05,0.0,0 STARLINK-5040,1 53914U 22119AE  23048.92874494  .00002912  00000-0  20101-3 0  9992,2 53914  53.2155 282.9029 0001129  96.1788 263.9333 15.08832259 23387,6917.904,95.438,540.55,538.988,0.0
53914.0,STARLINK-5040,PAYLOAD,2023-02-18 22:08:10,15.0884441,0.0001093,53.2154,278.4442,99.8667,260.2448,0.00031881,4.79e-05,0.0,0 STARLINK-5040,1 53914U 22119AE  23049.92234371  .00004790  00000-0  31881-3 0  9990,2 53914  53.2154 278.4442 0001093  99.8667 260.2448 15.08844410 23111,6917.867,95.437,540.488,538.976,0.0
53914.0,STARLINK-5040,PAYLOAD,2023-02-19 07:40:29,15.08847416,9.5e-05,53.2157,276.6603,101.8644,258.2454,0.00031618,4.749e-05,0.0,0 STARLINK-5040,1 53914U 22119AE  23050.31978223  .00004749  00000-0  31618-3 0  9998,2 53914  53.2157 276.6603 0000950 101.8644 258.2454 15.08847416 23598,6917.858,95.437,540.38,539.066,0.0
53914.0,STARLINK-5040,PAYLOAD,2023-02-19 20:23:34,15.08831869,9.18e-05,53.2162,274.2821,104.1586,255.9508,-0.00010072,-1.89e-05,0.0,0 STARLINK-5040,1 53914U 22119AE  23050.84970648 -.00001890  00000-0 -10072-3 0  9996,2 53914  53.2162 274.2821 0000918 104.1586 255.9508 15.08831869 23257,6917.905,95.438,540.405,539.135,0.0
53914.0,STARLINK-5040,PAYLOAD,2023-02-20 13:52:49,15.08838474,8.05e-05,53.2152,271.0102,98.9564,261.152,1.0161e-05,-1.26e-06,0.0,0 STARLINK-5040,1 53914U 22119AE  23051.57834571 -.00000126  00000-0  10161-4 0  9991,2 53914  53.2152 271.0102 0000805  98.9564 261.1520 15.08838474 23784,6917.885,95.438,540.307,539.193,0.0
53914.0,STARLINK-5040,PAYLOAD,2023-02-20 18:38:58,15.08843035,8.02e-05,53.2153,270.1181,100.5643,259.5439,0.00011583,1.556e-05,0.0,0 STARLINK-5040,1 53914U 22119AE  23051.77706421  .00001556  00000-0  11583-3 0  9990,2 53914  53.2153 270.1181 0000802 100.5643 259.5439 15.08843035 23393,6917.871,95.437,540.291,539.181,0.0
53914.0,STARLINK-5040,PAYLOAD,2023-02-21 02:35:53,15.08850067,8.17e-05,53.2149,268.6312,100.6957,259.4127,0.0003591,5.433e-05,0.0,0 STARLINK-5040,1 53914U 22119AE  23052.10826201  .00005433  00000-0  35910-3 0  9995,2 53914  53.2149 268.6312 0000817 100.6957 259.4127 15.08850067 23869,6917.85,95.437,540.28,539.149,0.0
53914.0,STARLINK-5040,PAYLOAD,2023-02-21 21:40:31,15.08861545,8.36e-05,53.2148,265.062,92.583,267.5257,0.00063044,9.766e-05,0.0,0 STARLINK-5040,1 53914U 22119AE  23052.90313735  .00009766  00000-0  63044-3 0  9998,2 53914  53.2148 265.0620 0000836  92.5830 267.5257 15.08861545 23981,6917.815,95.436,540.258,539.101,0.0
53914.0,STARLINK-5040,PAYLOAD,2023-02-22 02:26:40,15.08868885,8.12e-05,53.2146,264.1699,94.1944,265.9141,0.00079529,0.00012402,0.0,0 STARLINK-5040,1 53914U 22119AE  23053.10185328  .00012402  00000-0  79529-3 0  9992,2 53914  53.2146 264.1699 0000812  94.1944 265.9141 15.08868885 23598,6917.792,95.436,540.219,539.095,0.0
53914.0,STARLINK-5040,PAYLOAD,2023-02-22 13:34:22,15.08843863,0.0001397,53.2143,262.088,103.6957,256.4191,-4.0244e-05,-9.28e-06,0.0,0 STARLINK-5040,1 53914U 22119AE  23053.56553725 -.00000928  00000-0 -40244-4 0  9997,2 53914  53.2143 262.0880 0001397 103.6957 256.4191 15.08843863 24087,6917.869,95.437,540.7,538.767,0.0
53914.0,STARLINK-5040,PAYLOAD,2023-02-22 19:55:55,15.08839813,6.6e-05,53.2144,260.8983,94.3135,265.7933,7.6659e-05,9.33e-06,0.0,0 STARLINK-5040,1 53914U 22119AE  23053.83049848  .00000933  00000-0  76659-4 0  9996,2 53914  53.2144 260.8983 0000660  94.3135 265.7933 15.08839813 23709,6917.881,95.438,540.203,539.289,0.0
53914.0,STARLINK-5040,PAYLOAD,2023-02-22 21:31:18,15.08844879,6.21e-05,53.215,260.6009,82.0749,278.0313,0.00017692,2.53e-05,0.0,0 STARLINK-5040,1 53914U 22119AE  23053.89673863  .00002530  00000-0  17692-3 0  9998,2 53914  53.2150 260.6009 0000621  82.0749 278.0313 15.08844879 24130,6917.865,95.437,540.16,539.301,0.0
